ONEWEB-0446             
1 51640U 22012U   24150.63813867  .00000315  00000+0  86698-3 0  9995
2 51640  87.8948 185.0891 0001985  83.5596 276.5757 13.10369845111296
ONEWEB-0448             
1 51641U 22012V   24151.25001157 -.00040998  00000+0 -11798+0 0  9994
2 51641  87.8942 184.9692 0002121 100.7146 240.7345 13.10385927112638
ONEWEB-0449             
1 51642U 22012W   24150.64808934 -.00000237  00000+0 -71526-3 0  9996
2 51642  87.8942 185.0842 0001755  96.5367 263.5960 13.10369268111272
ONEWEB-0452             
1 51644U 22012Y   24151.08358062  .00000097  00000+0  21748-3 0  9992
2 51644  87.9163 154.8014 0001727  96.6912 263.4416 13.17650856116454
ONEWEB-0456             
1 51646U 22012AA  24151.11618731 -.00000450  00000+0 -13259-2 0  9992
2 51646  87.8940 184.9646 0002374  89.5395 270.6004 13.10370989112669
ONEWEB-0457             
1 51647U 22012AB  24150.63482140  .00000439  00000+0  12204-2 0  9996
2 51647  87.8948 185.0798 0001633  90.7947 269.3367 13.10370206111312
ONEWEB-0458             
1 51648U 22012AC  24151.25001157 -.00043266  00000+0 -12453+0 0  9991
2 51648  87.8946 184.9744 0002027 100.9819 177.9059 13.10389042112647
